$$SOE
2460154.500000000, A.D. 2023-Jul-29 00:00:00.0000, 6.901184719459328E+09, 1.840994662196793E+09, -3.509317054937076E+09,
2460161.500000000, A.D. 2023-Aug-05 00:00:00.0000, 6.900223365980515E+09, 1.843069699384891E+09, -3.509706337286351E+09,
2460168.500000000, A.D. 2023-Aug-12 00:00:00.0000, 6.899261260190380E+09, 1.845144531226115E+09, -3.510095278439695E+09,
2460175.500000000, A.D. 2023-Aug-19 00:00:00.0000, 6.898298400143180E+09, 1.847219155055415E+09, -3.510483878217083E+09,
2460182.500000000, A.D. 2023-Aug-26 00:00:00.0000, 6.897334784198797E+09, 1.849293567809074E+09, -3.510872136462619E+09,
2460189.500000000, A.D. 2023-Sep-02 00:00:00.0000, 6.896370411000477E+09, 1.851367766043386E+09, -3.511260053043127E+09,
2460196.500000000, A.D. 2023-Sep-09 00:00:00.0000, 6.895405279466212E+09, 1.853441745840807E+09, -3.511647627858086E+09,
2460203.500000000, A.D. 2023-Sep-16 00:00:00.0000, 6.894439388962157E+09, 1.855515502545571E+09, -3.512034860881063E+09,
2460210.500000000, A.D. 2023-Sep-23 00:00:00.0000, 6.893472740074512E+09, 1.857589030615534E+09, -3.512421752247329E+09,
2460217.500000000, A.D. 2023-Sep-30 00:00:00.0000, 6.892505335640296E+09, 1.859662324781004E+09, -3.512808302259105E+09,
2460224.500000000, A.D. 2023-Oct-07 00:00:00.0000, 6.891537179683290E+09, 1.861735381967695E+09, -3.513194511136770E+09,
2460231.500000000, A.D. 2023-Oct-14 00:00:00.0000, 6.890568275295006E+09, 1.863808200670654E+09, -3.513580378882016E+09,
2460238.500000000, A.D. 2023-Oct-21 00:00:00.0000, 6.889598624689340E+09, 1.865880779381887E+09, -3.513965905417926E+09,
2460245.500000000, A.D. 2023-Oct-28 00:00:00.0000, 6.888628230006510E+09, 1.867953116331794E+09, -3.514351090690373E+09,
2460252.500000000, A.D. 2023-Nov-04 00:00:00.0000, 6.887657093616269E+09, 1.870025209774024E+09, -3.514735934678817E+09,
2460259.500000000, A.D. 2023-Nov-11 00:00:00.0000, 6.886685218097950E+09, 1.872097058213885E+09, -3.515120437381522E+09,
2460266.500000000, A.D. 2023-Nov-18 00:00:00.0000, 6.885712606116839E+09, 1.874168660515978E+09, -3.515504598800358E+09,
2460273.500000000, A.D. 2023-Nov-25 00:00:00.0000, 6.884739260269727E+09, 1.876240015913647E+09, -3.515888418929748E+09,
2460280.500000000, A.D. 2023-Dec-02 00:00:00.0000, 6.883765182927780E+09, 1.878311123909015E+09, -3.516271897753157E+09,
2460287.500000000, A.D. 2023-Dec-09 00:00:00.0000, 6.882790376154609E+09, 1.880381984004722E+09, -3.516655035258881E+09,
2460294.500000000, A.D. 2023-Dec-16 00:00:00.0000, 6.881814841987028E+09, 1.882452595279914E+09, -3.517037831500513E+09,
2460301.500000000, A.D. 2023-Dec-23 00:00:00.0000, 6.880838583427005E+09, 1.884522956497935E+09, -3.517420286677864E+09,
2460308.500000000, A.D. 2023-Dec-30 00:00:00.0000, 6.879861604804551E+09, 1.886593067794968E+09, -3.517802401029807E+09,
2460315.500000000, A.D. 2024-Jan-06 00:00:00.0000, 6.878883909739116E+09, 1.888662931588930E+09, -3.518184174569546E+09,
2460322.500000000, A.D. 2024-Jan-13 00:00:00.0000, 6.877905499872220E+09, 1.890732550901684E+09, -3.518565607101219E+09,
2460329.500000000, A.D. 2024-Jan-20 00:00:00.0000, 6.876926375594881E+09, 1.892801928179182E+09, -3.518946698378240E+09,
2460336.500000000, A.D. 2024-Jan-27 00:00:00.0000, 6.875946536741118E+09, 1.894871065261707E+09, -3.519327448164238E+09,
2460343.500000000, A.D. 2024-Feb-03 00:00:00.0000, 6.874965982819138E+09, 1.896939963555614E+09, -3.519707856235069E+09,
2460350.500000000, A.D. 2024-Feb-10 00:00:00.0000, 6.873984713057567E+09, 1.899008624115453E+09, -3.520087922371341E+09,
2460357.500000000, A.D. 2024-Feb-17 00:00:00.0000, 6.873002726405449E+09, 1.901077047644388E+09, -3.520467646353700E+09,
2460364.500000000, A.D. 2024-Feb-24 00:00:00.0000, 6.872020021521933E+09, 1.903145234427704E+09, -3.520847027963129E+09,
2460371.500000000, A.D. 2024-Mar-02 00:00:00.0000, 6.871036596784986E+09, 1.905213184166897E+09, -3.521226066991685E+09,
2460378.500000000, A.D. 2024-Mar-09 00:00:00.0000, 6.870052450457970E+09, 1.907280895651475E+09, -3.521604763281656E+09,
2460385.500000000, A.D. 2024-Mar-16 00:00:00.0000, 6.869067581409350E+09, 1.909348366465738E+09, -3.521983116813310E+09,
2460392.500000000, A.D. 2024-Mar-23 00:00:00.0000, 6.868081990282008E+09, 1.911415593839579E+09, -3.522361127741139E+09,
2460399.500000000, A.D. 2024-Mar-30 00:00:00.0000, 6.867095678870955E+09, 1.913482576616531E+09, -3.522738796175265E+09,
2460406.500000000, A.D. 2024-Apr-06 00:00:00.0000, 6.866108647965522E+09, 1.915549314971421E+09, -3.523116122006674E+09,
2460413.500000000, A.D. 2024-Apr-13 00:00:00.0000, 6.865120897207137E+09, 1.917615808714069E+09, -3.523493105033667E+09,
2460420.500000000, A.D. 2024-Apr-20 00:00:00.0000, 6.864132426010566E+09, 1.919682056855698E+09, -3.523869745083436E+09,
2460427.500000000, A.D. 2024-Apr-27 00:00:00.0000, 6.863143234031555E+09, 1.921748057876646E+09, -3.524246042035439E+09,
2460434.500000000, A.D. 2024-May-04 00:00:00.0000, 6.862153321268839E+09, 1.923813809992111E+09, -3.524621995812092E+09,
2460441.500000000, A.D. 2024-May-11 00:00:00.0000, 6.861162688038819E+09, 1.925879311314277E+09, -3.524997606366825E+09,
2460448.500000000, A.D. 2024-May-18 00:00:00.0000, 6.860171334904922E+09, 1.927944559932741E+09, -3.525372873675138E+09,
2460455.500000000, A.D. 2024-May-25 00:00:00.0000, 6.859179262586329E+09, 1.930009553906417E+09, -3.525747797731313E+09,
2460462.500000000, A.D. 2024-Jun-01 00:00:00.0000, 6.858186471905975E+09, 1.932074291109818E+09, -3.526122378560753E+09,
2460469.500000000, A.D. 2024-Jun-08 00:00:00.0000, 6.857192964024096E+09, 1.934138768911079E+09, -3.526496616272181E+09,
2460476.500000000, A.D. 2024-Jun-15 00:00:00.0000, 6.856198741356949E+09, 1.936202984227084E+09, -3.526870511141512E+09,
2460483.500000000, A.D. 2024-Jun-22 00:00:00.0000, 6.855203808175380E+09, 1.938266935131072E+09, -3.527244063538926E+09,
2460490.500000000, A.D. 2024-Jun-29 00:00:00.0000, 6.854208168761702E+09, 1.940330622192102E+09, -3.527617273653039E+09,
2460497.500000000, A.D. 2024-Jul-06 00:00:00.0000, 6.853211825769819E+09, 1.942394047075423E+09, -3.527990141456556E+09,
2460504.500000000, A.D. 2024-Jul-13 00:00:00.0000, 6.852214780737901E+09, 1.944457211227944E+09, -3.528362666861186E+09,
2460511.500000000, A.D. 2024-Jul-20 00:00:00.0000, 6.851217034767897E+09, 1.946520115797526E+09, -3.528734849785784E+09,
2460518.500000000, A.D. 2024-Jul-27 00:00:00.0000, 6.850218588715954E+09, 1.948582761826713E+09, -3.529106690155902E+09,
2460525.500000000, A.D. 2024-Aug-03 00:00:00.0000, 6.849219443166623E+09, 1.950645150346024E+09, -3.529478187890524E+09,
2460532.500000000, A.D. 2024-Aug-10 00:00:00.0000, 6.848219598356657E+09, 1.952707282362553E+09, -3.529849342891678E+09,
2460539.500000000, A.D. 2024-Aug-17 00:00:00.0000, 6.847219054095708E+09, 1.954769158765895E+09, -3.530220155039695E+09,
2460546.500000000, A.D. 2024-Aug-24 00:00:00.0000, 6.846217809711786E+09, 1.956830780129491E+09, -3.530590624198722E+09,
2460553.500000000, A.D. 2024-Aug-31 00:00:00.0000, 6.845215864137073E+09, 1.958892146346292E+09, -3.530960750248372E+09,
2460560.500000000, A.D. 2024-Sep-07 00:00:00.0000, 6.844213216499606E+09, 1.960953256225466E+09, -3.531330533164979E+09,
2460567.500000000, A.D. 2024-Sep-14 00:00:00.0000, 6.843209867306079E+09, 1.963014108046299E+09, -3.531699973079125E+09,
2460574.500000000, A.D. 2024-Sep-21 00:00:00.0000, 6.842205818186923E+09, 1.965074701482158E+09, -3.532069070089872E+09,
2460581.500000000, A.D. 2024-Sep-28 00:00:00.0000, 6.841201069716169E+09, 1.967135037666981E+09, -3.532437824054904E+09,
2460588.500000000, A.D. 2024-Oct-05 00:00:00.0000, 6.840195620975816E+09, 1.969195117406153E+09, -3.532806234693218E+09,
2460595.500000000, A.D. 2024-Oct-12 00:00:00.0000, 6.839189470504047E+09, 1.971254940511961E+09, -3.533174301723802E+09,
2460602.500000000, A.D. 2024-Oct-19 00:00:00.0000, 6.838182616876415E+09, 1.973314505992990E+09, -3.533542024901917E+09,
2460609.500000000, A.D. 2024-Oct-26 00:00:00.0000, 6.837175058887607E+09, 1.975373812296218E+09, -3.533909404015508E+09,
2460616.500000000, A.D. 2024-Nov-02 00:00:00.0000, 6.836166795591278E+09, 1.977432857453699E+09, -3.534276438877474E+09,
2460623.500000000, A.D. 2024-Nov-09 00:00:00.0000, 6.835157826294646E+09, 1.979491639154783E+09, -3.534643129320933E+09,
2460630.500000000, A.D. 2024-Nov-16 00:00:00.0000, 6.834148150533923E+09, 1.981550154744452E+09, -3.535009475199793E+09,
2460637.500000000, A.D. 2024-Nov-23 00:00:00.0000, 6.833137768077665E+09, 1.983608401098141E+09, -3.535375476402930E+09,
2460644.500000000, A.D. 2024-Nov-30 00:00:00.0000, 6.832126679166458E+09, 1.985666374330669E+09, -3.535741132904518E+09,
2460651.500000000, A.D. 2024-Dec-07 00:00:00.0000, 6.831114885408506E+09, 1.987724069760110E+09, -3.536106444854455E+09,
2460658.500000000, A.D. 2024-Dec-14 00:00:00.0000, 6.830102390642568E+09, 1.989781483350764E+09, -3.536471412545628E+09,
2460665.500000000, A.D. 2024-Dec-21 00:00:00.0000, 6.829089199449754E+09, 1.991838613394592E+09, -3.536836036146565E+09,
2460672.500000000, A.D. 2024-Dec-28 00:00:00.0000, 6.828075315286744E+09, 1.993895459463873E+09, -3.537200315622738E+09,
2460679.500000000, A.D. 2025-Jan-04 00:00:00.0000, 6.827060740837651E+09, 1.995952021011321E+09, -3.537564250890326E+09,
2460686.500000000, A.D. 2025-Jan-11 00:00:00.0000, 6.826045478763418E+09, 1.998008297277559E+09, -3.537927841899544E+09,
2460693.500000000, A.D. 2025-Jan-18 00:00:00.0000, 6.825029531931902E+09, 2.000064287587151E+09, -3.538291088638225E+09,
2460700.500000000, A.D. 2025-Jan-25 00:00:00.0000, 6.824012903372265E+09, 2.002119991558687E+09, -3.538653991116555E+09,
2460707.500000000, A.D. 2025-Feb-01 00:00:00.0000, 6.822995596143333E+09, 2.004175409198764E+09, -3.539016549352503E+09,
2460714.500000000, A.D. 2025-Feb-08 00:00:00.0000, 6.821977613174421E+09, 2.006230540899557E+09, -3.539378763361468E+09,
2460721.500000000, A.D. 2025-Feb-15 00:00:00.0000, 6.820958957107539E+09, 2.008285387319928E+09, -3.539740633154222E+09,
$$EOE